STARLINK-2711           
1 48673U 21044AM  22163.26965075 -.00000008  00000+0  18392-4 0  9998
2 48673  53.0563 125.7203 0002066  64.4332 295.6870 15.06402063 57891
STARLINK-2712           
1 48674U 21044AN  22163.26503232 -.00000610  00000+0 -22023-4 0  9998
2 48674  53.0560 125.7326 0001890  62.9244 297.1937 15.06385789 57890
STARLINK-2737           
1 48675U 21044AP  22163.32863747  .00000176  00000+0  30709-4 0  9991
2 48675  53.0549 125.4597 0001756  62.2434 297.8733 15.06396287 57908
STARLINK-2746           
1 48676U 21044AQ  22163.32494644  .00000081  00000+0  24363-4 0  9992
2 48676  53.0541 125.4722 0002099  55.7075 304.4112 15.06397393 57905
STARLINK-2719           
1 48677U 21044AR  22163.25396912 -.00000059  00000+0  14954-4 0  9995
2 48677  53.0559 125.7809 0001781  62.5018 297.6151 15.06394738 57898
STARLINK-2615           
1 48678U 21044AS  22163.31756980 -.00000050  00000+0  15582-4 0  9997
2 48678  53.0551 125.5050 0001991  56.3072 303.8107 15.06401904 57908
STARLINK-2648           
1 48679U 21044AT  22163.31389263 -.00001729  00000+0 -97239-4 0  9998
2 48679  53.0551 125.5272 0001767  61.9603 298.1565 15.06391593 57904
STARLINK-2649           
1 48680U 21044AU  22163.31019725  .00000099  00000+0  25562-4 0  9990
2 48680  53.0560 125.5481 0002133  53.2995 306.8190 15.06401902 57901
STARLINK-2725           
1 48681U 21044AV  22163.50836423  .00067412  00000+0  45413-2 0  9991
2 48681  53.0558  94.8760 0001402 123.3768 236.7356 15.06073264 59242
STARLINK-2743           
1 48682U 21044AW  22163.58334491 -.00007379  00000+0 -50994-3 0  9997
2 48682  53.0558  84.4259 0001607  48.0418  39.2234 15.03946126  1301
STARLINK-2756           
1 48683U 21044AX  22163.19594116 -.00000087  00000+0  13079-4 0  9999
2 48683  53.0561  86.0641 0001751  55.0318 305.0835 15.06397396 58446
STARLINK-2741           
1 48684U 21044AY  22163.55030064  .00001946  00000+0  14953-3 0  9992
2 48684  53.0544  99.8143 0002010  61.9778 298.1414 15.06404302 58285
STARLINK-2751           
1 48685U 21044AZ  22163.29915183 -.00001066  00000+0 -52709-4 0  9995
2 48685  53.0557  85.6338 0001437  77.4290 282.6860 15.06394137 58469
STARLINK-2629           
1 48686U 21044BA  22163.49223327 -.00001383  00000+0 -73925-4 0  9995
2 48686  53.0569  89.9995 0001999  47.8985 312.2174 15.06408377 58419
STARLINK-2627           
1 48687U 21044BB  22163.46731046 -.00001044  00000+0 -51168-4 0  9994
2 48687  53.0565  79.8427 0001630  65.3737 294.7421 15.06399697 59397
STARLINK-2742           
1 48688U 21044BC  22163.47100198 -.00000142  00000+0  93918-5 0  9991
2 48688  53.0569  79.8101 0001693  78.8340 281.2839 15.06401450 59394
STARLINK-2617           
1 48689U 21044BD  22163.47606709 -.00000973  00000+0 -46436-4 0  9996
2 48689  53.0572  84.7673 0001898  62.7507 297.3675 15.06393668 58488
STARLINK-2740           
1 48690U 21044BE  22163.54886417  .00000999  00000+0  85936-4 0  9996
2 48690  53.0571  94.4715 0001962  67.9843 292.1355 15.06399462 58358
STARLINK-2750           
1 48691U 21044BF  22163.52168416  .00001454  00000+0  11649-3 0  9993
2 48691  53.0568  89.5940 0001771  63.2160 296.9010 15.06399987 58429
STARLINK-2752           
1 48692U 21044BG  22163.50695935 -.00000584  00000+0 -20309-4 0  9992
2 48692  53.0549  89.7778 0001465  69.7024 290.4122 15.06390787 58422
STARLINK-2618           
1 48693U 21044BH  22163.51474728  .00001391  00000+0  11227-3 0  9992
2 48693  53.0554  94.6188 0002033  59.6535 300.4655 15.06403208 58354
STARLINK-2748           
1 48694U 21044BJ  22163.54930310  .00001874  00000+0  14466-3 0  9994
2 48694  53.0562  99.4548 0002190  55.1161 305.0034 15.06403534 58283
STARLINK-2616           
1 48695U 21044BK  22163.10793808  .00000786  00000+0  71668-4 0  9995
2 48695  53.0561 101.4947 0001991  63.1932 296.9260 15.06394946 58222
STARLINK-2753           
1 48696U 21044BL  22163.56268678  .00000151  00000+0  29063-4 0  9996
2 48696  53.0541 104.4448 0001942  65.9674 294.1518 15.06403439 58223
STARLINK-2715           
1 48697U 21044BM  22163.52583084  .00000400  00000+0  45766-4 0  9999
2 48697  53.0545 104.5796 0002169  63.1398 296.9812 15.06389246 58215
ONEWEB-0211             
1 48767U 21045A   22163.54716909  .00000047  00000+0  90219-4 0  9994
2 48767  87.9095 190.8005 0001723 102.0652 258.0671 13.15547226 51713
ONEWEB-0223             
1 48768U 21045B   22163.49223043 -.00000032  00000+0 -11781-3 0  9993
2 48768  87.9105 190.7800 0001523 105.3260 254.8038 13.15548606 51698
ONEWEB-0230             
1 48769U 21045C   22163.54081632  .00000070  00000+0  15160-3 0  9991
2 48769  87.9139 190.7753 0001661  96.1786 263.9534 13.15544465 51967
ONEWEB-0237             
1 48770U 21045D   22163.53026839  .00000289  00000+0  73400-3 0  9993
2 48770  87.9128 190.6582 0001377  90.9178 269.2110 13.15549494 51682
ONEWEB-0235             
1 48771U 21045E   22163.50278868 -.00000012  00000+0 -66593-4 0  9994
2 48771  87.9145 190.6943 0000947  98.9949 261.1288 13.15547923 51670
ONEWEB-0242             
1 48772U 21045F   22163.49645734 -.00000108  00000+0 -32113-3 0  9999
2 48772  87.9095 190.7707 0001617  87.5350 272.5966 13.15548476 51717
ONEWEB-0241             
1 48773U 21045G   22163.55984490 -.00000036  00000+0 -12833-3 0  9999
2 48773  87.9087 190.7376 0001833 113.4009 246.7314 13.15548541 51635
ONEWEB-0243             
1 48774U 21045H   22163.51546798  .00000162  00000+0  39762-3 0  9999
2 48774  87.9149 190.7415 0001401  86.2534 273.8756 13.15547724 51655
ONEWEB-0222             
1 48775U 21045J   22163.50490846  .00000005  00000+0 -21372-4 0  9997
2 48775  87.9142 190.7701 0001781 102.6022 257.5308 13.15550401 51695
ONEWEB-0244             
1 48776U 21045K   22163.53975685  .00000089  00000+0  20141-3 0  9993
2 48776  87.9087 190.7300 0001362  76.9430 283.1853 13.15551982 52269
ONEWEB-0247             
1 48777U 21045L   22163.52180476  .00000158  00000+0  38645-3 0  9994
2 48777  87.9096 190.7196 0001102  98.8072 261.3183 13.15547446 51702
ONEWEB-0245             
1 48778U 21045M   22163.51758136  .00000190  00000+0  47003-3 0  9992
2 48778  87.9151 190.7027 0002056 107.1935 252.9420 13.15547515 51672
ONEWEB-0229             
1 48779U 21045N   22163.51123597  .00000110  00000+0  25718-3 0  9991
2 48779  87.9146 190.6968 0001647 103.5869 256.5445 13.15547643 51704
ONEWEB-0228             
1 48780U 21045P   22163.52603046  .00000166  00000+0  40760-3 0  9991
2 48780  87.9128 190.7155 0001753  90.9112 269.2219 13.15550766 51624
ONEWEB-0232             
1 48781U 21045Q   22163.51968755  .00000180  00000+0  44300-3 0  9992
2 48781  87.9033 190.8891 0001947 104.7165 255.4181 13.15542354 51949
ONEWEB-0231             
1 48782U 21045R   22163.49857179 -.00000054  00000+0 -17677-3 0  9996
2 48782  87.9008 190.8252 0001448  95.9362 264.1933 13.15547526 51633
ONEWEB-0234             
1 48783U 21045S   22163.52393000  .00000333  00000+0  85117-3 0  9991
2 48783  87.9097 190.7627 0002086 100.5114 259.6251 13.15549099 51778
ONEWEB-0238             
1 48784U 21045T   22163.53554113  .00000120  00000+0  28591-3 0  9994
2 48784  87.9135 190.7731 0002130  99.6023 260.5348 13.15550186 51671
ONEWEB-0240             
1 48785U 21045U   22163.55772239 -.00000078  00000+0 -24210-3 0  9996
2 48785  87.9093 190.7494 0001769 116.6312 243.5000 13.15550909 51702
ONEWEB-0246             
1 48786U 21045V   22163.55349791 -.00000019  00000+0 -83854-4 0  9995
2 48786  87.9088 190.7583 0001515  93.8006 266.3298 13.15548163 51577
ONEWEB-0210             
1 48787U 21045W   22163.52815482  .00000329  00000+0  84001-3 0  9994
2 48787  87.9095 190.7637 0001220  69.3909 290.7352 13.15549553 51610
ONEWEB-0214             
1 48788U 21045X   22163.53870227  .00000060  00000+0  12533-3 0  9997
2 48788  87.9106 190.7838 0001505  61.8611 298.2671 13.15548206 51587
ONEWEB-0221             
1 48789U 21045Y   22163.54504012  .00000025  00000+0  31573-4 0  9992
2 48789  87.9088 190.7757 0001692  97.3754 262.7569 13.15547260 51677
ONEWEB-0213             
1 48790U 21045Z   22163.53236880  .00000149  00000+0  36294-3 0  9999
2 48790  87.9157 190.7480 0001489  94.8128 265.3172 13.15550524 51733
ONEWEB-0212             
1 48791U 21045AA  22163.51335703  .00000109  00000+0  25669-3 0  9992
2 48791  87.9151 190.7796 0002310  92.0785 268.0610 13.15549104 52865
ONEWEB-0227             
1 48792U 21045AB  22163.50702881  .00000068  00000+0  14619-3 0  9994
2 48792  87.9173 190.7714 0001840 103.8744 256.2591 13.15548017 51670
ONEWEB-0226             
1 48793U 21045AC  22163.50067378  .00000037  00000+0  64474-4 0  9991
2 48793  87.9146 190.7286 0001217  80.9051 279.2217 13.15550535 51644
ONEWEB-0224             
1 48794U 21045AD  22163.54293915  .00000099  00000+0  22826-3 0  9996
2 48794  87.9085 190.7502 0002422 101.6660 258.4742 13.15547575 51578
ONEWEB-0233             
1 48795U 21045AE  22163.56089411 -.00000031  00000+0 -11648-3 0  9991
2 48795  87.9154 190.7159 0001945 104.9124 255.2222 13.15550768 52706
ONEWEB-0190             
1 48796U 21045AF  22163.53449224  .00000437  00000+0  11258-2 0  9995
2 48796  87.9159 190.7102 0000703 116.8967 243.2235 13.15548798 51663
ONEWEB-0236             
1 48797U 21045AG  22163.55139773 -.00000022  00000+0 -91586-4 0  9999
2 48797  87.9091 190.7935 0001898  94.7085 265.4262 13.15550177 51552
ONEWEB-0248             
1 48798U 21045AH  22163.48800213 -.00000076  00000+0 -23475-3 0  9996
2 48798  87.9092 190.7782 0001630 128.2166 231.9111 13.15547537 51705
ONEWEB-0225             
1 48799U 21045AJ  22163.50912024  .00000062  00000+0  13149-3 0  9994
2 48799  87.9136 190.7865 0001366 111.4201 248.7075 13.15549881 51717
ONEWEB-0215             
1 48800U 21045AK  22163.55560758 -.00000054  00000+0 -17818-3 0  9995
2 48800  87.9088 190.7625 0001333 127.7770 232.3481 13.15547925 51598
